{
    "links": {
        "self": "http://www.neowsapp.com/rest/v1/neo/3653067?api_key=iIulBulltgU6a56xZRHN4H3l9WmuAYTsLGpBGhQ2"
    },
    "id": "3653067",
    "neo_reference_id": "3653067",
    "name": "(2013 UC3)",
    "designation": "2013 UC3",
    "nasa_jpl_url": "http://ssd.jpl.nasa.gov/sbdb.cgi?sstr=3653067",
    "absolute_magnitude_h": 23.8,
    "estimated_diameter": {
        "kilometers": {
            "estimated_diameter_min": 0.046190746,
            "estimated_diameter_max": 0.1032856481
        },
        "meters": {
            "estimated_diameter_min": 46.1907460282,
            "estimated_diameter_max": 103.2856480504
        },
        "miles": {
            "estimated_diameter_min": 0.0287015901,
            "estimated_diameter_max": 0.0641787064
        },
        "feet": {
            "estimated_diameter_min": 151.544447199,
            "estimated_diameter_max": 338.8636855496
        }
    },
    "is_potentially_hazardous_asteroid": false,
    "close_approach_data": [
        {
            "close_approach_date": "2013-10-26",
            "close_approach_date_full": "2013-Oct-26 17:26",
            "epoch_date_close_approach": 1382808360000,
            "relative_velocity": {
                "kilometers_per_second": "11.3648339649",
                "kilometers_per_hour": "40913.4022736544",
                "miles_per_hour": "25421.9970960938"
            },
            "miss_distance": {
                "astronomical": "0.2079160936",
                "lunar": "80.8793604104",
                "kilometers": "31103804.741280632",
                "miles": "19327008.0609594416"
            },
            "orbiting_body": "Earth"
        }
    ],
    "orbital_data": {
        "orbit_id": "9",
        "orbit_determination_date": "2017-04-06 08:44:02",
        "first_observation_date": "2013-10-24",
        "last_observation_date": "2013-11-09",
        "data_arc_in_days": 16,
        "observations_used": 27,
        "orbit_uncertainty": "8",
        "minimum_orbit_intersection": ".206805",
        "jupiter_tisserand_invariant": "4.167",
        "epoch_osculation": "2456593.5",
        "eccentricity": ".2714783202629134",
        "semi_major_axis": "1.64679395965676",
        "inclination": "21.57927618371016",
        "ascending_node_longitude": "33.19907016328716",
        "orbital_period": "771.8933953073462",
        "perihelion_distance": "1.199725101670031",
        "perihelion_argument": "5.373129068012381",
        "aphelion_distance": "2.093862817643489",
        "perihelion_time": "2456599.539375528429",
        "mean_anomaly": "357.1833219412782",
        "mean_motion": ".4663856462415489",
        "equinox": "J2000",
        "orbit_class": {
            "orbit_class_type": "AMO",
            "orbit_class_description": "Near-Earth asteroid orbits similar to that of 1221 Amor",
            "orbit_class_range": "1.017 AU < q (perihelion) < 1.3 AU"
        }
    },
    "is_sentry_object": false
}